     2              NAVIGATION DATA                         RINEX VERSION / TYPE
CCRINEXN V1.6.0 UX  CDDIS               22-MAY-18 16:44     PGM / RUN BY / DATE 
IGS BROADCAST EPHEMERIS FILE                                COMMENT             
    0.7451D-08 -0.1490D-07 -0.5960D-07  0.1192D-06          ION ALPHA           
    0.8806D+05 -0.4915D+05 -0.1966D+06  0.3277D+06          ION BETA            
   -0.186264514923D-08-0.621724893790D-14   589824     1984 DELTA-UTC: A0,A1,T,W
    18                                                      LEAP SECONDS        
                                                            END OF HEADER       
 1 18  1 19  0  0  0.0-0.242190435529D-04-0.193267624127D-11 0.000000000000D+00
    0.210000000000D+02-0.125687500000D+03 0.413088629969D-08-0.175872026704D+01
   -0.645965337753D-05 0.724958570208D-02 0.667758285999D-05 0.515368079567D+04
    0.432000000000D+06 0.447034835815D-07-0.369076748065D+00-0.856816768646D-07
    0.970179694164D+00 0.254968750000D+03 0.620059356647D+00-0.793140220168D-08
   -0.287154827694D-09 0.100000000000D+01 0.198400000000D+04 0.000000000000D+00
    0.200000000000D+01 0.000000000000D+00 0.558793544769D-08 0.210000000000D+02
    0.432000000000D+06 0.000000000000D+00 0.000000000000D+00 0.000000000000D+00
 2 18  1 19  0  0  0.0 0.224502757192D-03-0.103455022327D-10 0.000000000000D+00
    0.100000000000D+02-0.111812500000D+03 0.483770150969D-08-0.135426197186D+01
   -0.554323196411D-05 0.176719008014D-01 0.504590570927D-05 0.515366395187D+04
    0.432000000000D+06 0.312924385071D-06-0.427458983714D+00 0.428408384323D-06
    0.949163944077D+00 0.274656250000D+03-0.191085598943D+01-0.835641950699D-08
   -0.368943939425D-09 0.100000000000D+01 0.198400000000D+04 0.000000000000D+00
    0.200000000000D+01 0.000000000000D+00-0.204890966415D-07 0.100000000000D+02
    0.427230000000D+06 0.400000000000D+01 0.000000000000D+00 0.000000000000D+00
 5 18  1 19  0  0  0.0-0.165933743119D-04 0.102318153950D-11 0.000000000000D+00
    0.240000000000D+02-0.310312500000D+02 0.453161730363D-08 0.120397886406D+01
   -0.147148966789D-05 0.527180300560D-02 0.113155692816D-04 0.515363305283D+04
    0.432000000000D+06-0.484287738800D-07 0.653094132998D+00 0.353902578354D-07
    0.947685146022D+00 0.156062500000D+03 0.630276323847D+00-0.795354537786D-08
    0.373586994673D-09 0.100000000000D+01 0.198400000000D+04 0.000000000000D+00
    0.200000000000D+01 0.000000000000D+00-0.107102096081D-07 0.240000000000D+02
    0.000000000000D+00 0.000000000000D+00 0.000000000000D+00 0.000000000000D+00
